OBJECT_NAME,OBJECT_ID,EPOCH,MEAN_MOTION,ECCENTRICITY,INCLINATION,RA_OF_ASC_NODE,ARG_OF_PERICENTER,MEAN_ANOMALY,EPHEMERIS_TYPE,CLASSIFICATION_TYPE,NORAD_CAT_ID,ELEMENT_SET_NO,REV_AT_EPOCH,BSTAR,MEAN_MOTION_DOT,MEAN_MOTION_DDOT
ALOS-2,2014-029A,2026-07-15T14:42:08.920800,14.79467278,.00015823,97.9234,293.3699,91.0636,269.0757,0,U,39766,999,65578,.89767297E-4,.619E-5,0
KAZEOSAT 2,2014-033A,2026-07-15T14:07:21.040608,14.85503180,.0007417,97.5390,34.6983,217.5433,142.5265,0,U,40010,999,65317,.10359625E-3,.844E-5,0
HODOYOSHI-4,2014-033B,2026-07-15T14:39:10.326816,14.88192185,.00226605,97.5452,20.0625,208.0249,151.9750,0,U,40011,999,65303,.13633186E-3,.121E-4,0
DEIMOS-2,2014-033D,2026-07-15T14:03:05.923008,14.93794768,.00009532,97.5791,70.0723,109.0810,251.0514,0,U,40013,999,64196,.72880408E-4,.719E-5,0
HODOYOSHI-3,2014-033F,2026-07-15T09:50:19.556448,14.85437358,.00313032,97.6445,358.3197,261.1575,98.6096,0,U,40015,999,65181,.58226648E-4,.453E-5,0
SPOT 7,2014-034A,2026-07-15T14:30:10.713888,14.60981555,.00016096,98.0619,258.3619,93.7371,266.4014,0,U,40053,999,64128,.70528221E-4,.3E-5,0
SKYSAT-B,2014-037D,2026-07-15T15:15:36.161280,14.88092637,.00056342,98.3854,157.2264,171.3232,188.8082,0,U,40072,999,65019,.73818238E-4,.617E-5,0
WORLDVIEW-3 (WV-3),2014-048A,2026-07-15T14:26:03.806880,14.85064708,.0001333,97.8557,271.0410,155.4306,204.6972,0,U,40115,999,64612,.53290132E-4,.402E-5,0
GAOFEN-2,2014-049A,2026-07-15T14:55:45.054336,14.80930644,.00082794,98.0101,260.8004,133.1294,227.0612,0,U,40118,999,64344,.13192833E-3,.967E-5,0
YAOGAN-21,2014-053A,2026-07-15T14:39:09.963072,15.26764116,.00077701,97.1456,235.6308,7.3211,352.8140,0,U,40143,999,65929,.16705479E-3,.4329E-4,0
YAOGAN-22,2014-063A,2026-07-15T09:36:53.815104,13.15531514,.00068691,100.7762,348.1468,124.7845,235.3914,0,U,40275,999,56352,-.39658494E-4,-.62E-6,0
ASNARO,2014-070A,2026-07-15T14:31:31.076256,15.19836246,.00067717,97.3452,271.9560,87.4595,272.7415,0,U,40298,999,64832,.27467828E-3,.5825E-4,0
YAOGAN-24,2014-072A,2026-07-15T14:52:15.560256,14.76120254,.00146468,98.1522,334.1997,168.2389,191.9166,0,U,40310,999,62791,.1237416E-3,.802E-5,0
CBERS 4,2014-079A,2026-07-15T14:45:30.280320,14.35517093,.00008157,98.3520,252.5524,51.2781,308.8478,0,U,40336,999,60803,.12652991E-3,.322E-5,0
YAOGAN-26,2014-088A,2026-07-15T15:24:40.944384,15.48456285,.00018591,97.0645,196.2066,338.7113,21.4061,0,U,40362,999,64210,.23532507E-3,.1241E-3,0
SMAP,2015-003A,2026-07-15T14:13:20.128512,14.63389423,.00016021,98.1284,203.2857,95.0060,265.1325,0,U,40376,999,61177,.46309646E-4,.192E-5,0
KOMPSAT-3A,2015-014A,2026-07-15T13:28:28.003872,15.55441651,.0056241,97.6890,190.0302,74.4237,286.3215,0,U,40536,999,62622,.29245397E-3,.21303E-3,0
SENTINEL-2A,2015-028A,2026-07-15T14:33:04.836672,14.30815497,.00012883,98.5683,271.0533,93.5194,266.6136,0,U,40697,999,57779,.14738366E-3,.343E-5,0
GAOFEN-8,2015-030A,2026-07-15T14:56:56.702400,15.46957839,.00099796,97.6885,31.7202,94.6490,265.5899,0,U,40701,999,61584,.29512453E-3,.14815E-3,0
CARBONITE 1 (CBNT-1),2015-032D,2026-07-15T13:49:55.655904,14.83667428,.0013945,97.6512,13.4566,195.8129,164.2653,0,U,40718,999,59355,.9478919E-4,.733E-5,0
YAOGAN-27,2015-040A,2026-07-15T14:41:49.201728,13.16073115,.00085295,100.1165,181.7633,144.0894,216.0794,0,U,40878,999,52140,.65365175E-3,.206E-5,0
GAOFEN-9 01,2015-047A,2026-07-15T14:31:21.466848,14.82935590,.00284355,97.6264,231.0074,49.2117,311.1558,0,U,40894,999,58440,.67544587E-4,.501E-5,0
YAOGAN-28,2015-064A,2026-07-15T14:53:45.582144,15.27763370,.0012074,97.3112,334.3146,91.7511,268.5111,0,U,41026,999,59502,.13978771E-3,.3725E-4,0
YAOGAN-29,2015-069A,2026-07-15T13:57:35.076672,14.83109119,.00006984,98.0017,225.2579,15.3096,344.8139,0,U,41038,999,57483,.1129142E-3,.866E-5,0
KENT RIDGE 1,2015-077B,2026-07-14T06:33:17.975808,15.23280956,.00082992,14.9803,64.5207,262.2466,97.6913,0,U,41167,999,58523,.68866126E-4,.2444E-4,0
GAOFEN-4,2015-083A,2026-07-13T16:26:26.113344,1.00274923,.00039405,0.4223,83.7871,124.9375,75.1281,0,U,41194,999,3879,0,-.34E-5,0
JASON-3,2016-002A,2026-07-15T14:02:48.400224,12.87628671,.00081765,66.0416,66.1322,270.9169,89.0913,0,U,41240,999,49090,.12776799E-3,-.3E-6,0
SENTINEL-3A,2016-011A,2026-07-15T14:51:34.983360,14.26739878,.00013608,98.6238,263.5925,89.7254,270.4082,0,U,41335,999,54211,.41183633E-4,.56E-6,0
ZIYUAN 3-02 (ZY 3-02),2016-033A,2026-07-15T14:30:05.617152,15.21436821,.00141187,97.3828,271.8321,183.5050,176.6090,0,U,41556,999,56230,.13002475E-3,.2858E-4,0
CARTOSAT-2C,2016-040A,2026-07-15T13:54:56.099808,15.19266652,.0009508,97.4469,256.1647,43.5694,316.6290,0,U,41599,999,55802,.13073777E-3,.2691E-4,0
