ALOS-2                  
1 39766U 14029A   26196.61260325  .00000619  00000+0  89767-4 0  9992
2 39766  97.9234 293.3699 0001582  91.0636 269.0757 14.79467278655781
KAZEOSAT 2              
1 40010U 14033A   26196.58843797  .00000844  00000+0  10360-3 0  9999
2 40010  97.5390  34.6983 0007417 217.5433 142.5265 14.85503180653179
HODOYOSHI-4             
1 40011U 14033B   26196.61053619  .00001210  00000+0  13633-3 0  9994
2 40011  97.5452  20.0625 0022660 208.0249 151.9750 14.88192185653038
DEIMOS-2                
1 40013U 14033D   26196.58548522  .00000719  00000+0  72880-4 0  9997
2 40013  97.5791  70.0723 0000953 109.0810 251.0514 14.93794768641965
HODOYOSHI-3             
1 40015U 14033F   26196.40994857  .00000453  00000+0  58227-4 0  9990
2 40015  97.6445 358.3197 0031303 261.1575  98.6096 14.85437358651817
SPOT 7                  
1 40053U 14034A   26196.60429067  .00000300  00000+0  70528-4 0  9990
2 40053  98.0619 258.3619 0001609  93.7371 266.4014 14.60981555641285
SKYSAT-B                
1 40072U 14037D   26196.63583520  .00000617  00000+0  73818-4 0  9998
2 40072  98.3854 157.2264 0005634 171.3232 188.8082 14.88092637650190
WORLDVIEW-3 (WV-3)      
1 40115U 14048A   26196.60143295  .00000402  00000+0  53290-4 0  9990
2 40115  97.8557 271.0410 0001333 155.4306 204.6972 14.85064708646125
GAOFEN-2                
1 40118U 14049A   26196.62204924  .00000967  00000+0  13193-3 0  9996
2 40118  98.0101 260.8004 0008279 133.1294 227.0612 14.80930644643444
YAOGAN-21               
1 40143U 14053A   26196.61053198  .00004329  00000+0  16705-3 0  9991
2 40143  97.1456 235.6308 0007770   7.3211 352.8140 15.26764116659291
YAOGAN-22               
1 40275U 14063A   26196.40062286 -.00000062  00000+0 -39658-4 0  9998
2 40275 100.7762 348.1468 0006869 124.7845 235.3914 13.15531514563524
ASNARO                  
1 40298U 14070A   26196.60522079  .00005825  00000+0  27468-3 0  9999
2 40298  97.3452 271.9560 0006771  87.4595 272.7415 15.19836246648320
YAOGAN-24               
1 40310U 14072A   26196.61962454  .00000802  00000+0  12374-3 0  9992
2 40310  98.1522 334.1997 0014646 168.2389 191.9166 14.76120254627911
CBERS 4                 
1 40336U 14079A   26196.61493380  .00000322  00000+0  12653-3 0  9991
2 40336  98.3520 252.5524 0000815  51.2781 308.8478 14.35517093608031
YAOGAN-26               
1 40362U 14088A   26196.64214056  .00012410  00000+0  23533-3 0  9994
2 40362  97.0645 196.2066 0001859 338.7113  21.4061 15.48456285642102
SMAP                    
1 40376U 15003A   26196.59259408  .00000192  00000+0  46310-4 0  9994
2 40376  98.1284 203.2857 0001602  95.0060 265.1325 14.63389423611779
KOMPSAT-3A              
1 40536U 15014A   26196.56143523  .00021303  00000+0  29245-3 0  9995
2 40536  97.6890 190.0302 0056241  74.4237 286.3215 15.55441651626221
SENTINEL-2A             
1 40697U 15028A   26196.60630598  .00000343  00000+0  14738-3 0  9998
2 40697  98.5683 271.0533 0001288  93.5194 266.6136 14.30815497577795
GAOFEN-8                
1 40701U 15030A   26196.62287850  .00014815  00000+0  29512-3 0  9993
2 40701  97.6885  31.7202 0009979  94.6490 265.5899 15.46957839615843
CARBONITE 1 (CBNT-1)    
1 40718U 15032D   26196.57633861  .00000733  00000+0  94789-4 0  9997
2 40718  97.6512  13.4566 0013945 195.8129 164.2653 14.83667428593557
YAOGAN-27               
1 40878U 15040A   26196.61237502  .00000206  00000+0  65365-3 0  9992
2 40878 100.1165 181.7633 0008529 144.0894 216.0794 13.16073115521405
GAOFEN-9 01             
1 40894U 15047A   26196.60510957  .00000501  00000+0  67545-4 0  9995
2 40894  97.6264 231.0074 0028435  49.2117 311.1558 14.82935590584405
YAOGAN-28               
1 41026U 15064A   26196.62066646  .00003725  00000+0  13979-3 0  9997
2 41026  97.3112 334.3146 0012074  91.7511 268.5111 15.27763370595026
YAOGAN-29               
1 41038U 15069A   26196.58165598  .00000866  00000+0  11291-3 0  9994
2 41038  98.0017 225.2579 0000698  15.3096 344.8139 14.83109119574838
KENT RIDGE 1            
1 41167U 15077B   26195.27312472  .00002444  00000+0  68866-4 0  9991
2 41167  14.9803  64.5207 0008299 262.2466  97.6913 15.23280956585235
GAOFEN-4                
1 41194U 15083A   26194.68502446 -.00000340  00000+0  00000+0 0  9999
2 41194   0.4223  83.7871 0003940 124.9375  75.1281  1.00274923 38792
JASON-3                 
1 41240U 16002A   26196.58528241 -.00000030  00000+0  12777-3 0  9999
2 41240  66.0416  66.1322 0008176 270.9169  89.0913 12.87628671490902
SENTINEL-3A             
1 41335U 16011A   26196.61915490  .00000056  00000+0  41184-4 0  9996
2 41335  98.6238 263.5925 0001360  89.7254 270.4082 14.26739878542112
ZIYUAN 3-02 (ZY 3-02)   
1 41556U 16033A   26196.60423168  .00002858  00000+0  13002-3 0  9999
2 41556  97.3828 271.8321 0014118 183.5050 176.6090 15.21436821562309
CARTOSAT-2C             
1 41599U 16040A   26196.57981597  .00002691  00000+0  13074-3 0  9999
2 41599  97.4469 256.1647 0009508  43.5694 316.6290 15.19266652558023
